[{"OBJECT_NAME":"STARLINK-4275","OBJECT_ID":"2022-076Y","EPOCH":"2026-03-09T18:55:47.599968","MEAN_MOTION":15.08840177,"ECCENTRICITY":0.00013987,"INCLINATION":53.2171,"RA_OF_ASC_NODE":93.6662,"ARG_OF_PERICENTER":82.4868,"MEAN_ANOMALY":277.6283,"EPHEMERIS_TYPE":0,"CLASSIFICATION_TYPE":"U","NORAD_CAT_ID":53008,"ELEMENT_SET_NO":999,"REV_AT_EPOCH":20286,"BSTAR":3.3402469e-5,"MEAN_MOTION_DOT":2.44e-6,"MEAN_MOTION_DDOT":0},{"OBJECT_NAME":"DISKSAT A","OBJECT_ID":"2025-305D","EPOCH":"2026-03-09T13:08:58.223040","MEAN_MOTION":15.07741062,"ECCENTRICITY":0.0004082,"INCLINATION":45.0023,"RA_OF_ASC_NODE":251.6019,"ARG_OF_PERICENTER":318.1929,"MEAN_ANOMALY":41.8634,"EPHEMERIS_TYPE":0,"CLASSIFICATION_TYPE":"U","NORAD_CAT_ID":67222,"ELEMENT_SET_NO":999,"REV_AT_EPOCH":1226,"BSTAR":0.00090452,"MEAN_MOTION_DOT":0.00013824,"MEAN_MOTION_DDOT":0}]
